NORAD_CAT_ID,OBJECT_NAME,OBJECT_TYPE,EPOCH,MEAN_MOTION,ECCENTRICITY,INCLINATION,RA_OF_ASC_NODE,ARG_OF_PERICENTER,MEAN_ANOMALY,BSTAR,MEAN_MOTION_DOT,MEAN_MOTION_DDOT,TLE_LINE0,TLE_LINE1,TLE_LINE2,SEMIMAJOR_AXIS,PERIOD,APOGEE,PERIGEE,DECAYED
50195.0,STARLINK-3266,PAYLOAD,2024-06-18 18:11:17,15.08841945,0.0001241,53.2162,182.507,85.6042,274.5092,3.8543e-05,3.26e-06,0.0,0 STARLINK-3266,1 50195U 21125AR  24170.75784618  .00000326  00000-0  38543-4 0  9999,2 50195  53.2162 182.5070 0001241  85.6042 274.5092 15.08841945141782,6917.874,95.437,540.598,538.881,0.0
50195.0,STARLINK-3266,PAYLOAD,2024-06-19 05:18:59,15.08842461,0.0001226,53.2162,180.4252,88.0319,272.0814,5.1587e-05,5.33e-06,0.0,0 STARLINK-3266,1 50195U 21125AR  24171.22152520  .00000533  00000-0  51587-4 0  9996,2 50195  53.2162 180.4252 0001226  88.0319 272.0814 15.08842461141372,6917.873,95.437,540.586,538.89,0.0
50195.0,STARLINK-3266,PAYLOAD,2024-06-19 06:54:22,15.08842955,0.000118,53.2159,180.1278,89.1566,270.9561,5.5575e-05,5.97e-06,0.0,0 STARLINK-3266,1 50195U 21125AR  24171.28776445  .00000597  00000-0  55575-4 0  9991,2 50195  53.2159 180.1278 0001180  89.1566 270.9561 15.08842955141866,6917.871,95.437,540.553,538.92,0.0
50195.0,STARLINK-3266,PAYLOAD,2024-06-19 18:02:04,15.08841258,0.0001167,53.2159,178.0465,88.2243,271.8883,4.4112e-05,4.14e-06,0.0,0 STARLINK-3266,1 50195U 21125AR  24171.75144515  .00000414  00000-0  44112-4 0  9993,2 50195  53.2159 178.0465 0001167  88.2243 271.8883 15.08841258141937,6917.877,95.437,540.549,538.934,0.0
50195.0,STARLINK-3266,PAYLOAD,2024-06-20 05:09:47,15.08833303,0.0001168,53.2163,175.9647,90.2511,269.8615,5.7182e-05,6.22e-06,0.0,0 STARLINK-3266,1 50195U 21125AR  24172.21513035  .00000622  00000-0  57182-4 0  9994,2 50195  53.2163 175.9647 0001168  90.2511 269.8615 15.08833303141529,6917.901,95.438,540.574,538.958,0.0
50195.0,STARLINK-3266,PAYLOAD,2024-06-20 09:55:56,15.0883767,0.0001191,53.2162,175.0724,91.2818,268.831,1.9509e-05,2.3e-07,0.0,0 STARLINK-3266,1 50195U 21125AR  24172.41384863  .00000023  00000-0  19509-4 0  9997,2 50195  53.2162 175.0724 0001191  91.2818 268.8310 15.08837670142031,6917.888,95.438,540.576,538.929,0.0
50195.0,STARLINK-3266,PAYLOAD,2024-06-21 05:00:33,15.08842659,0.0001201,53.2163,171.5041,91.3207,268.7922,3.0441e-05,1.97e-06,0.0,0 STARLINK-3266,1 50195U 21125AR  24173.20872491  .00000197  00000-0  30441-4 0  9994,2 50195  53.2163 171.5041 0001201  91.3207 268.7922 15.08842659141670,6917.872,95.437,540.568,538.906,0.0
50195.0,STARLINK-3266,PAYLOAD,2024-06-22 04:51:21,15.08833913,0.0001355,53.2164,167.044,92.9973,267.1174,1.3892e-05,-6.7e-07,0.0,0 STARLINK-3266,1 50195U 21125AR  24174.20233306 -.00000067  00000-0  13892-4 0  9999,2 50195  53.2164 167.0440 0001355  92.9973 267.1174 15.08833913141823,6917.899,95.438,540.701,538.827,0.0
50195.0,STARLINK-3266,PAYLOAD,2024-06-22 09:37:27,15.08880951,0.000114,53.216,166.1518,87.6666,272.4456,0.0003931,5.981e-05,0.0,0 STARLINK-3266,1 50195U 21125AR  24174.40100966  .00005981  00000-0  39310-3 0  9997,2 50195  53.2160 166.1518 0001140  87.6666 272.4456 15.08880951141856,6917.755,95.435,540.409,538.832,0.0
50195.0,STARLINK-3266,PAYLOAD,2024-06-23 04:42:01,15.08910053,0.0001448,53.2163,162.5796,96.8429,263.2728,0.00064002,9.932e-05,0.0,0 STARLINK-3266,1 50195U 21125AR  24175.19585246  .00009932  00000-0  64002-3 0  9998,2 50195  53.2163 162.5796 0001448  96.8429 263.2728 15.08910053141977,6917.666,95.433,540.533,538.53,0.0
50195.0,STARLINK-3266,PAYLOAD,2024-06-23 12:39:05,15.08803636,0.0001421,53.2165,161.0943,117.095,243.0187,-0.00027062,-4.588e-05,0.0,0 STARLINK-3266,1 50195U 21125AR  24175.52714361 -.00004588  00000-0 -27062-3 0  9996,2 50195  53.2165 161.0943 0001421 117.0950 243.0187 15.08803636142023,6917.992,95.44,540.84,538.873,0.0
50195.0,STARLINK-3266,PAYLOAD,2024-06-23 22:11:23,15.08816837,0.00021,53.2168,159.3083,150.7634,209.3476,-0.00029761,-5.019e-05,0.0,0 STARLINK-3266,1 50195U 21125AR  24175.92458049 -.00005019  00000-0 -29761-3 0  9996,2 50195  53.2168 159.3083 0002100 150.7634 209.3476 15.08816837142561,6917.951,95.439,541.269,538.363,0.0
50195.0,STARLINK-3266,PAYLOAD,2024-06-24 04:32:56,15.08814071,0.0001419,53.2171,158.1239,112.2782,247.836,-0.00013958,-2.507e-05,0.0,0 STARLINK-3266,1 50195U 21125AR  24176.18954181 -.00002507  00000-0 -13958-3 0  9993,2 50195  53.2171 158.1239 0001419 112.2782 247.8360 15.08814071142123,6917.96,95.439,540.806,538.843,0.0
50195.0,STARLINK-3266,PAYLOAD,2024-06-24 07:43:42,15.08822512,0.0001366,53.2171,157.5289,109.3133,250.8007,-0.0002197,-3.781e-05,0.0,0 STARLINK-3266,1 50195U 21125AR  24176.32202064 -.00003781  00000-0 -21970-3 0  9993,2 50195  53.2171 157.5289 0001366 109.3133 250.8007 15.08822512142625,6917.934,95.439,540.744,538.854,0.0
50195.0,STARLINK-3266,PAYLOAD,2024-06-25 04:23:43,15.0883416,0.0001319,53.2168,153.6632,115.673,244.4399,-0.00023382,-4.007e-05,0.0,0 STARLINK-3266,1 50195U 21125AR  24177.18313897 -.00004007  00000-0 -23382-3 0  9996,2 50195  53.2168 153.6632 0001319 115.6730 244.4399 15.08834160142277,6917.898,95.438,540.676,538.851,0.0
50195.0,STARLINK-3266,PAYLOAD,2024-06-25 05:59:06,15.08834695,0.0001281,53.2167,153.3658,114.3927,245.7199,-0.00022338,-3.841e-05,0.0,0 STARLINK-3266,1 50195U 21125AR  24177.24937877 -.00003841  00000-0 -22338-3 0  9998,2 50195  53.2167 153.3658 0001281 114.3927 245.7199 15.08834695142762,6917.897,95.438,540.648,538.875,0.0
50195.0,STARLINK-3266,PAYLOAD,2024-06-26 05:49:53,15.08829479,0.0001061,53.2163,148.9047,117.5446,242.5654,0.00028048,4.178e-05,0.0,0 STARLINK-3266,1 50195U 21125AR  24178.24298215  .00004178  00000-0  28048-3 0  9991,2 50195  53.2163 148.9047 0001061 117.5446 242.5654 15.08829479142436,6917.913,95.438,540.512,539.044,0.0
50195.0,STARLINK-3266,PAYLOAD,2024-06-27 04:05:17,15.08852489,0.0001033,53.2154,144.7415,116.8399,243.2699,0.00038151,5.791e-05,0.0,0 STARLINK-3266,1 50195U 21125AR  24179.17033929  .00005791  00000-0  38151-3 0  9991,2 50195  53.2154 144.7415 0001033 116.8399 243.2699 15.08852489142576,6917.842,95.437,540.422,538.993,0.0
50195.0,STARLINK-3266,PAYLOAD,2024-06-27 15:12:59,15.08851212,9.81e-05,53.2147,142.6594,117.0006,243.1086,0.00026728,3.97e-05,0.0,0 STARLINK-3266,1 50195U 21125AR  24179.63401795  .00003970  00000-0  26728-3 0  9996,2 50195  53.2147 142.6594 0000981 117.0006 243.1086 15.08851212143126,6917.846,95.437,540.39,539.032,0.0
50195.0,STARLINK-3266,PAYLOAD,2024-06-28 03:56:04,15.08847438,0.0001157,53.2167,140.2818,110.4402,249.6714,2.5852e-05,1.24e-06,0.0,0 STARLINK-3266,1 50195U 21125AR  24180.16393840  .00000124  00000-0  25852-4 0  9993,2 50195  53.2167 140.2818 0001157 110.4402 249.6714 15.08847438142723,6917.858,95.437,540.523,538.922,0.0
50195.0,STARLINK-3266,PAYLOAD,2024-06-29 06:57:36,15.08852913,0.0001079,53.2135,135.2266,96.459,263.6525,0.00013231,1.819e-05,0.0,0 STARLINK-3266,1 50195U 21125AR  24181.29001063  .00001819  00000-0  13231-3 0  9990,2 50195  53.2135 135.2266 0001079  96.4590 263.6525 15.08852913142891,6917.841,95.437,540.452,538.959,0.0
50195.0,STARLINK-3266,PAYLOAD,2024-06-29 21:16:06,15.08828089,0.0001782,53.215,132.5483,96.6329,263.4866,-8.6393e-05,-1.662e-05,0.0,0 STARLINK-3266,1 50195U 21125AR  24181.88618695 -.00001662  00000-0 -86393-4 0  9998,2 50195  53.2150 132.5483 0001782  96.6329 263.4866 15.08828089143469,6917.917,95.438,541.015,538.549,0.0
50195.0,STARLINK-3266,PAYLOAD,2024-06-30 03:37:39,15.0882939,0.0001162,53.2159,131.361,105.1562,254.9558,-3.9557e-05,-9.17e-06,0.0,0 STARLINK-3266,1 50195U 21125AR  24182.15114784 -.00000917  00000-0 -39557-4 0  9991,2 50195  53.2159 131.3610 0001162 105.1562 254.9558 15.08829390143025,6917.913,95.438,540.582,538.974,0.0
50195.0,STARLINK-3266,PAYLOAD,2024-06-30 06:48:25,15.08830773,0.0001169,53.2158,130.7657,104.3405,255.7717,-1.5934e-05,-5.41e-06,0.0,0 STARLINK-3266,1 50195U 21125AR  24182.28362812 -.00000541  00000-0 -15934-4 0  9998,2 50195  53.2158 130.7657 0001169 104.3405 255.7717 15.08830773143520,6917.909,95.438,540.582,538.965,0.0
50195.0,STARLINK-3266,PAYLOAD,2024-07-01 03:28:25,15.08855704,0.0001115,53.2152,126.9011,109.6821,250.4291,0.00062046,9.605e-05,0.0,0 STARLINK-3266,1 50195U 21125AR  24183.14474171  .00009605  00000-0  62046-3 0  9999,2 50195  53.2152 126.9011 0001115 109.6821 250.4291 15.08855704143177,6917.832,95.437,540.469,538.926,0.0
50195.0,STARLINK-3266,PAYLOAD,2024-07-01 13:00:44,15.08850464,0.000117,53.215,125.1175,101.6849,258.4274,0.00054546,8.406e-05,0.0,0 STARLINK-3266,1 50195U 21125AR  24183.54218232  .00008406  00000-0  54546-3 0  9991,2 50195  53.2150 125.1175 0001170 101.6849 258.4274 15.08850464143234,6917.848,95.437,540.523,538.904,0.0
50195.0,STARLINK-3266,PAYLOAD,2024-07-02 04:54:35,15.08847085,0.0001182,53.2155,122.1433,100.682,259.4305,0.00036429,5.516e-05,0.0,0 STARLINK-3266,1 50195U 21125AR  24184.20458160  .00005516  00000-0  36429-3 0  9990,2 50195  53.2155 122.1433 0001182 100.6820 259.4305 15.08847085143336,6917.859,95.437,540.541,538.906,0.0
50195.0,STARLINK-3266,PAYLOAD,2024-07-02 12:51:31,15.08842173,0.0001371,53.216,120.656,88.3584,271.7565,0.00045332,6.934e-05,0.0,0 STARLINK-3266,1 50195U 21125AR  24184.53578432  .00006934  00000-0  45332-3 0  9999,2 50195  53.2160 120.6560 0001371  88.3584 271.7565 15.08842173143861,6917.874,95.437,540.687,538.79,0.0
50195.0,STARLINK-3266,PAYLOAD,2024-07-02 19:13:04,15.08841535,0.0001391,53.2164,119.4691,90.984,269.1311,0.00033897,5.111e-05,0.0,0 STARLINK-3266,1 50195U 21125AR  24184.80074508  .00005111  00000-0  33897-3 0  9993,2 50195  53.2164 119.4691 0001391  90.9840 269.1311 15.08841535143425,6917.876,95.437,540.703,538.778,0.0
50195.0,STARLINK-3266,PAYLOAD,2024-07-03 12:42:18,15.08845167,0.0001052,53.2154,116.1967,93.1234,266.9878,0.00014974,2.096e-05,0.0,0 STARLINK-3266,1 50195U 21125AR  24185.52938302  .00002096  00000-0  14974-3 0  9998,2 50195  53.2154 116.1967 0001052  93.1234 266.9878 15.08845167144014,6917.865,95.437,540.457,539.002,0.0
